[Satellite]
VERSION=1.1
NAME=IRIDIUM 156
NICKNAME=IRIDIUM 156
TLE1=1 43576U 18061H   22342.44641359  .00000299  00000+0  99694-4 0  9990
TLE2=2 43576  86.3998 234.4113 0002033  93.2065 266.9364 14.34215380228943
STATUS=0
